CUTE-1 (CO-55)          
1 27844U 03031E   20187.51253426  .00000031  00000-0  33501-4 0  9998
2 27844  98.6809 194.9746 0010053  10.8306 349.3087 14.22245242882666
CUBESAT XI-IV (CO-57)   
1 27848U 03031J   20187.47407059  .00000022  00000-0  29670-4 0  9992
2 27848  98.6876 195.4952 0010191  22.8383 337.3246 14.21831180882508
CUBESAT XI-V            
1 28895U 05043F   20187.32362882  .00000072  00000-0  22701-4 0  9991
2 28895  98.0121 323.1805 0015914 220.6812 139.3203 14.63780351783229
CUTE-1.7+APD II (CO-65) 
1 32785U 08021C   20187.54955107  .00000115  00000-0  17952-4 0  9995
2 32785  97.5731 174.7706 0014626  75.2156 285.0681 14.88484012660569
AAUSAT-II               
1 32788U 08021F   20187.52307657 -.00000048  00000-0  57922-6 0  9996
2 32788  97.4906 191.2186 0011766   3.5582 356.5721 14.95083612662010
DELFI-C3 (DO-64)        
1 32789U 08021G   20187.38597383  .00001007  00000-0  69775-4 0  9990
2 32789  97.4169 229.5602 0010384 251.3148 108.6954 15.07774571664512
SEEDS II (CO-66)        
1 32791U 08021J   20187.51918634  .00000277  00000-0  33297-4 0  9992
2 32791  97.5407 180.8720 0014515  47.3510 312.8930 14.91066488661071
SWISSCUBE               
1 35932U 09051B   20187.49172106  .00000079  00000-0  28842-4 0  9999
2 35932  98.6106  10.3542 0008794  74.6854 285.5314 14.56403639572453
BEESAT-1                
1 35933U 09051C   20187.47314800  .00000063  00000-0  25253-4 0  9993
2 35933  98.6101  12.2007 0007037  86.1927 274.0074 14.56478152572520
ITUPSAT1                
1 35935U 09051E   20187.47848138  .00000050  00000-0  22656-4 0  9991
2 35935  98.6207  12.4038 0009345  85.1179 275.1084 14.55623378572295
TISAT 1                 
1 36799U 10035E   20187.41790135  .00000376  00000-0  43844-4 0  9994
2 36799  98.1955 358.3823 0010836 271.4357  88.5619 14.91375016541602
M-CUBED & EXP-1 PRIME   
1 37855U 11061F   20187.51050601  .00000409  00000-0  28172-4 0  9990
2 37855 101.7143 285.2235 0170784  21.3755 339.4480 15.06357962473924
AEROCUBE 4.5A           
1 38767U 12048K   20187.37260370  .00000049  00000-0  19578-4 0  9999
2 38767  64.6649 180.2871 0139230 130.1362 231.2046 14.92307750 44474
AEROCUBE 4.5B           
1 38768U 12048L   20187.27101651  .00000181  00000-0  28440-4 0  9990
2 38768  64.6663 148.8372 0128249 125.8758 235.4345 14.95981389 44540
STRAND-1                
1 39090U 13009E   20187.55519706  .00000025  00000-0  23789-4 0  9990
2 39090  98.4551  31.3953 0008191 225.8559 134.1954 14.35136074385281
SOMP                    
1 39134U 13015E   20187.45685627  .00000679  00000-0  39393-4 0  9994
2 39134  64.8616 219.4695 0032023 240.7524 119.0401 15.21099605398412
BEESAT-3                
1 39135U 13015F   20187.55431755  .00000537  00000-0  35682-4 0  9997
2 39135  64.8666 242.9525 0035487 242.8787 116.8719 15.18216248397968
BEESAT-2                
1 39136U 13015G   20187.54333383  .00000536  00000-0  36229-4 0  9992
2 39136  64.8702 248.0213 0031867 277.8277  81.9232 15.17600265397867
NEE-01 PEGASO           
1 39151U 13018B   20187.51824207  .00000076  00000-0  16966-4 0  9994
2 39151  97.9744 286.2096 0017974  45.7267 314.5416 14.80178372388344
ESTCUBE 1               
1 39161U 13021C   20187.22207067  .00000061  00000-0  17390-4 0  9992
2 39161  97.9644 269.8963 0009429 175.3713 184.7583 14.72327908384650
POPACS 1                
1 39268U 13055D   20187.51322350  .00004723  00000-0  12802-3 0  9993
2 39268  81.0026 277.0660 0617003 168.5161 193.0887 14.39398699350599
POPACS 2                
1 39269U 13055E   20187.33392139  .00000874  00000-0  25086-4 0  9998
2 39269  81.0153 315.6753 0676594 268.6385  83.7254 14.25504333349751
POPACS 3                
1 39270U 13055F   20187.41068485  .00000186  00000-0  51447-5 0  9990
2 39270  81.0165 337.5081 0709332 331.3535  25.0318 14.16927833327676
ZACUBE-1 (TSHEPISOSAT)  
1 39417U 13066B   20187.46851701  .00000124  00000-0  22001-4 0  9996
2 39417  97.5647 184.4897 0057808 217.6175 142.0989 14.81287132357704
WNISAT-1                
1 39423U 13066H   20187.35867267 -.00000085  00000-0 -69119-5 0  9995
2 39423  97.8015 107.6224 0174350 199.3991 160.0493 14.53122820351028
TRITON-1                
1 39427U 13066M   20187.33644740  .00000219  00000-0  42769-4 0  9994
2 39427  97.7250 147.2677 0114743  21.3221 339.2721 14.68014827354484
GOMX-1                  
1 39430U 13066Q   20187.42595842  .00000087  00000-0  24472-4 0  9990
2 39430  97.7915 124.8692 0151839 127.5588 233.9509 14.59407846352429
CUBEBUG-2 (LO-74)       
1 39440U 13066AA  20187.52194976  .00000112  00000-0  22712-4 0  9999
2 39440  97.6314 169.0257 0078524 281.8557  77.3855 14.76023291355243
NEE-02 KRYSAOR          
1 39441U 13066AB  20187.47792655  .00000063  00000-0  16359-4 0  9997
2 39441  97.6390 166.4919 0080172 291.1936  68.0722 14.75025467355067
FUNCUBE-1 (AO-73)       
1 39444U 13066AE  20187.52343192  .00000181  00000-0  28478-4 0  9990
2 39444  97.5587 186.7823 0057084 209.4043 150.3956 14.82142451356047
UWE-3                   
1 39446U 13066AG  20187.47960693  .00000101  00000-0  20255-4 0  9994
2 39446  97.5986 176.1645 0068363 250.6258 108.7555 14.78557006355238
AEROCUBE 5A             
1 39465U 13072D   20187.52286401  .00002349  00000-0  22359-3 0  9998
2 39465 120.4919 228.5956 0255913 263.2273  93.9599 14.76528878 44033
AEROCUBE 5B             
1 39466U 13072E   20187.47997902  .00003020  00000-0  23796-3 0  9991
2 39466 120.4882 266.1891 0228495 272.6789  84.8135 14.86163359 44259
BRITE-CA1 (TORONTO)     
1 40020U 14033L   20187.49179072  .00000030  00000-0  13503-4 0  9993
2 40020  97.7306  14.6690 0087772  16.1081 344.2883 14.66650005323298
DUCHIFAT-1              
1 40021U 14033M   20187.33315001  .00000147  00000-0  20731-4 0  9991
2 40021  97.9429 118.6794 0011607 224.2341 135.7950 14.90922782328555
NANOSATC-BR1            
1 40024U 14033Q   20187.56748574  .00000175  00000-0  24023-4 0  9993
2 40024  97.9275 115.2375 0010923 228.4007 131.6275 14.90089701327931
QB50P1                  
1 40025U 14033R   20187.52995992  .00000185  00000-0  25595-4 0  9994
2 40025  97.9151 111.8379 0011054 236.7500 123.2658 14.89150675327789
QB50P2                  
1 40032U 14033Y   20187.51783411  .00000148  00000-0  21907-4 0  9994
2 40032  97.9037 109.2562 0010501 233.1407 126.8847 14.88675824327672
PERSEUS-M2              
1 40037U 14033AD  20187.50338315  .00000024  00000-0  89660-5 0  9991
2 40037  97.8882 103.7166 0012942 251.6802 108.3006 14.86548840327349
PERSEUS-M1              
1 40039U 14033AF  20187.38291442  .00000019  00000-0  84231-5 0  9991
2 40039  97.8846 102.3524 0012807 249.9035 110.0802 14.86169697327749
POLYITAN-1              
1 40042U 14033AJ  20187.52900384  .00000174  00000-0  24558-4 0  9990
2 40042  97.9236 112.3778 0013328 227.2159 132.7937 14.88898172327686
TIGRISAT                
1 40043U 14033AK  20187.54109872  .00000091  00000-0  20943-4 0  9998
2 40043  97.7080  42.9222 0058626 301.1037  58.4428 14.74386651324710
AEROCUBE 6A             
1 40045U 14033AM  20187.45239713  .00000135  00000-0  26769-4 0  9999
2 40045  97.7334  48.4097 0056251 292.7612  66.7660 14.75586441324766
AEROCUBE 6B             
1 40046U 14033AN  20187.53018406  .00000208  00000-0  37204-4 0  9990
2 40046  97.7242  47.7360 0055546 291.4452  68.0839 14.75578237324772
UKUBE-1                 
1 40074U 14037F   20187.56825849  .00000180  00000-0  28654-4 0  9993
2 40074  98.4547  16.9844 0005597  65.8948 294.2886 14.84280620324443
BRITE-PL2 (HEWELIUSZ)   
1 40119U 14049B   20187.51880651  .00000060  00000-0  13490-4 0  9992
2 40119  97.8955 279.5606 0018529  53.3007 306.9906 14.84513744318374
FIREBIRD 4              
1 40378U 15003C   20187.41440516  .00000954  00000-0  40676-4 0  9999
2 40378  99.0941 251.3941 0122693 253.8301 104.9397 15.20129185300040
GRIFEX                  
1 40379U 15003D   20187.42781304  .00000589  00000-0  29222-4 0  9992
2 40379  99.1009 243.2236 0131555 279.3841  79.2535 15.16455903299571
EXOCUBE (CP10)          
1 40380U 15003E   20187.38943511  .00000505  00000-0  26923-4 0  9992
2 40380  99.1079 238.7814 0136693 294.5537  64.1493 15.14408314299275
AEROCUBE 8A             
1 40659U 15025J   20187.54067532  .00008641  00000-0  95041-4 0  9999
2 40659  55.0143 209.1837 0102053 221.6649 137.6583 15.57968113 46374
AEROCUBE 8B             
1 40660U 15025K   20187.51432300  .00008652  00000-0  94155-4 0  9994
2 40660  55.0117 207.1899 0101080 223.6280 135.6734 15.58339345 46382
TIANWANG 1C (TW-1C)     
1 40926U 15051B   20187.46206521  .00016695  00000-0  16136-3 0  9994
2 40926  97.0825 239.3617 0005891  41.0330  84.5970 15.66490700269849
TIANWANG 1A (TW-1A)     
1 40928U 15051D   20187.50903197  .00002087  00000-0  49630-4 0  9990
2 40928  97.1078 214.8994 0012206 117.0866  25.8950 15.42693448268151
EXACTVIEW 9             
1 40936U 15052G   20186.52690332  .00000712  00000-0  10418-4 0  9990
2 40936   6.0020 218.5505 0010069 147.4283 212.6467 14.76577293257758
AEROCUBE 5C             
1 40965U 15058B   20187.47079473  .00000026  00000-0  22884-4 0  9998
2 40965  64.7791  89.3566 0169266  67.2132 294.6755 14.74531701 43961
AEROCUBE 7              
1 40966U 15058C   20187.44739867  .00000070  00000-0  28089-4 0  9998
2 40966  64.7792  87.8830 0168190  66.8903 294.9827 14.74833250 43963
ATHENOXAT 1             
1 41168U 15077C   20187.48070058  .00001347  00000-0  34555-4 0  9991
2 41168  14.9883 289.1523 0011393  19.0335 341.0410 15.14410171252088
GALASSIA                
1 41170U 15077E   20186.47194495  .00001325  00000-0  32895-4 0  9995
2 41170  14.9886 288.3431 0012643  31.8271 328.2813 15.14702855252002
VELOX-II                
1 41171U 15077F   20187.52622835  .00001127  00000-0  25967-4 0  9999
2 41171  14.9921 325.7419 0008860 301.2940  58.6513 15.11721132251767
